ONEWEB-0267             
1 48985U 21060U   26026.17842972 -.00000094  00000+0 -28041-3 0  9991
2 48985  87.9011 257.0435 0001274  75.7851 284.3422 13.16595009220902
ONEWEB-0268             
1 48986U 21060V   26026.14676490 -.00000124  00000+0 -35713-3 0  9997
2 48986  87.9014 257.0595 0001430  80.6678 279.4614 13.16594089221163
ONEWEB-0269             
1 48987U 21060W   26026.12776219 -.00000072  00000+0 -22143-3 0  9991
2 48987  87.9002 257.0810 0001711  79.8947 280.2377 13.16593409220937
ONEWEB-0270             
1 48988U 21060X   26026.14518923 -.00000091  00000+0 -27080-3 0  9996
2 48988  87.9013 257.0615 0001062  88.2878 271.8375 13.16594284220979
ONEWEB-0271             
1 48989U 21060Y   26026.13250686 -.00001389  00000+0 -36682-2 0  9993
2 48989  87.9019 257.0540 0001296  79.8482 280.2795 13.16599825220975
ONEWEB-0272             
1 48990U 21060Z   26026.15468444 -.00000102  00000+0 -29982-3 0  9998
2 48990  87.9012 257.0621 0001366  73.0644 287.0637 13.16594290220920
ONEWEB-0273             
1 48991U 21060AA  26026.17685439 -.00000118  00000+0 -34215-3 0  9998
2 48991  87.9016 257.0553 0001297  83.5073 276.6205 13.16595109220907
ONEWEB-0274             
1 48992U 21060AB  26026.12618725 -.00000215  00000+0 -59501-3 0  9991
2 48992  87.9003 257.0833 0001553  69.3382 290.7916 13.16594103220937
